{
    "links": {
        "self": "http://www.neowsapp.com/rest/v1/neo/3766589?api_key=iIulBulltgU6a56xZRHN4H3l9WmuAYTsLGpBGhQ2"
    },
    "id": "3766589",
    "neo_reference_id": "3766589",
    "name": "(2017 BV)",
    "designation": "2017 BV",
    "nasa_jpl_url": "http://ssd.jpl.nasa.gov/sbdb.cgi?sstr=3766589",
    "absolute_magnitude_h": 26.0,
    "estimated_diameter": {
        "kilometers": {
            "estimated_diameter_min": 0.0167708462,
            "estimated_diameter_max": 0.0375007522
        },
        "meters": {
            "estimated_diameter_min": 16.7708462163,
            "estimated_diameter_max": 37.5007521798
        },
        "miles": {
            "estimated_diameter_min": 0.0104209175,
            "estimated_diameter_max": 0.0233018799
        },
        "feet": {
            "estimated_diameter_min": 55.0224631002,
            "estimated_diameter_max": 123.0339677816
        }
    },
    "is_potentially_hazardous_asteroid": false,
    "close_approach_data": [
        {
            "close_approach_date": "2016-08-29",
            "close_approach_date_full": "2016-Aug-29 16:57",
            "epoch_date_close_approach": 1472489820000,
            "relative_velocity": {
                "kilometers_per_second": "7.4196135662",
                "kilometers_per_hour": "26710.6088382075",
                "miles_per_hour": "16596.9335861629"
            },
            "miss_distance": {
                "astronomical": "0.4167553373",
                "lunar": "162.1178262097",
                "kilometers": "62345710.771211551",
                "miles": "38739828.2835233638"
            },
            "orbiting_body": "Earth"
        },
        {
            "close_approach_date": "2017-01-13",
            "close_approach_date_full": "2017-Jan-13 20:05",
            "epoch_date_close_approach": 1484337900000,
            "relative_velocity": {
                "kilometers_per_second": "11.2661506162",
                "kilometers_per_hour": "40558.1422183366",
                "miles_per_hour": "25201.2523133881"
            },
            "miss_distance": {
                "astronomical": "0.0273443678",
                "lunar": "10.6369590742",
                "kilometers": "4090659.179376586",
                "miles": "2541817.7484094468"
            },
            "orbiting_body": "Earth"
        }
    ],
    "orbital_data": {
        "orbit_id": "3",
        "orbit_determination_date": "2017-04-06 08:20:57",
        "first_observation_date": "2017-01-19",
        "last_observation_date": "2017-01-28",
        "data_arc_in_days": 9,
        "observations_used": 29,
        "orbit_uncertainty": "8",
        "minimum_orbit_intersection": ".027135",
        "jupiter_tisserand_invariant": "4.473",
        "epoch_osculation": "2457774.5",
        "eccentricity": ".3873462393092206",
        "semi_major_axis": "1.479013598436503",
        "inclination": "13.68451045351768",
        "ascending_node_longitude": "117.8768443602094",
        "orbital_period": "656.9868506729964",
        "perihelion_distance": ".9061232431949259",
        "perihelion_argument": "306.225445003306",
        "aphelion_distance": "2.05190395367808",
        "perihelion_time": "2457728.157334131784",
        "mean_anomaly": "25.39374980711997",
        "mean_motion": ".5479561723818787",
        "equinox": "J2000",
        "orbit_class": {
            "orbit_class_type": "APO",
            "orbit_class_description": "Near-Earth asteroid orbits which cross the Earth’s orbit similar to that of 1862 Apollo",
            "orbit_class_range": "a (semi-major axis) > 1.0 AU; q (perihelion) < 1.017 AU"
        }
    },
    "is_sentry_object": false
}